satname,norad_id,inclination_deg,eccentricity,mean_motion_rev_per_day,perigee_km,apogee_km,l1,l2
STARLINK-1234,45190,53.0363,0.0004637,15.74413042,343.1838351223232,349.4200798114789,1 45190U 20012N   26157.52942536  .00088402  00000+0  59543-3 0  9991,2 45190  53.0363 246.8489 0004637 263.8991  96.1499 15.74413042349825
STARLINK-1269,45197,53.156,0.0001083,15.34828186,460.6901518588429,462.1716022610135,1 45197U 20012V   26157.22780525  .00055134  00000+0  16090-2 0  9998,2 45197  53.1560 347.3828 0001083 126.2256 233.8847 15.34828186348487
STARLINK-1154,45198,53.0437,0.0001618,15.63678154,375.95005892078007,378.1360351840067,1 45198U 20012W   26157.63612622  .00048784  00000+0  51641-3 0  9991,2 45198  53.0437 300.6260 0001618 354.6597   5.4399 15.63678154349128
STARLINK-1199,45201,53.1541,0.0001194,15.34897951,460.40700537414796,462.04024469140586,1 45201U 20012Z   26157.98029615  .00033503  00000+0  98265-3 0  9994,2 45201  53.1541 328.1334 0001194 249.0260 111.0615 15.34897951348849
STARLINK-1209,45206,53.0376,0.0007193,15.65672032,366.45182171236866,376.16157141424446,1 45206U 20012AE  26157.53655464  .00054664  00000+0  53314-3 0  9994,2 45206  53.0376 261.3485 0007193 236.3460 123.6869 15.65672032348777
STARLINK-1231,45212,53.0388,0.0003214,15.27759755,480.30588544467355,484.7159099133023,1 45212U 20012AL  26157.76391161  .00034390  00000+0  12582-2 0  9992,2 45212  53.0388 324.3927 0003214  77.0113 283.1244 15.27759755348813
STARLINK-1271,45217,53.1566,0.0001195,15.35045973,459.9666945924282,461.6011966984379,1 45217U 20012AR  26157.65231968  .00043624  00000+0  12685-2 0  9997,2 45217  53.1566 329.7896 0001195 247.1695 112.9181 15.35045973348797
STARLINK-1191,45222,53.155,0.0002611,15.39072607,447.0678893860786,450.6329422146091,1 45222U 20012AW  26157.70045966  .00075803  00000+0  19203-2 0  9997,2 45222  53.1550 302.5996 0002611 208.3998 151.6865 15.39072607349186
STARLINK-1212,45223,53.0397,0.0001211,15.67064253,366.491642366228,368.12538927015976,1 45223U 20012AX  26157.93822388  .00058263  00000+0  53739-3 0  9998,2 45223  53.0397 274.9904 0001211 107.4017 252.7131 15.67064253349573
STARLINK-1215,45225,53.157,0.0002016,15.35118471,459.1899428389779,461.94730894733857,1 45225U 20012AZ  26157.65178866  .00044812  00000+0  12995-2 0  9997,2 45225  53.1570 304.0555 0002016 266.4111  93.6661 15.35118471349118
STARLINK-1221,45227,53.0632,0.0002292,15.44820324,430.34520380622234,433.46692754752894,1 45227U 20012BB  26157.43050883  .00023565  00000+0  50232-3 0  9992,2 45227  53.0632 208.1434 0002292 318.8320  41.2513 15.44820324350415
STARLINK-1222,45228,53.0519,0.0002107,15.55070462,400.51924889629663,403.37637663639725,1 45228U 20012BC  26157.60214348  .00043498  00000+0  63918-3 0  9992,2 45228  53.0519 274.7653 0002107   9.9613 350.1438 15.55070462349430
STARLINK-1226,45229,53.1559,0.0002701,15.4400462,432.4643299879717,436.1444108162632,1 45229U 20012BD  26157.68742381  .00066255  00000+0  14275-2 0  9991,2 45229  53.1559 300.0114 0002701 265.7017  94.3681 15.44004620349114
STARLINK-1227,45230,53.1551,0.0002643,15.44118073,432.1702333341909,435.7711134503461,1 45230U 20012BE  26157.69735674  .00067380  00000+0  14458-2 0  9994,2 45230  53.1551 300.0726 0002643 254.0021 106.0695 15.44118073349235
STARLINK-1246,45235,53.1562,0.000208,15.34888528,459.82902434361404,462.6742100083584,1 45235U 20012BK  26157.82022570  .00043003  00000+0  12569-2 0  9995,2 45235  53.1562 344.2379 0002080 197.1462 162.9470 15.34888528348630
STARLINK-1270,45237,53.0407,0.000234,15.6220356,379.7115681838077,382.8749815524461,1 45237U 20012BM  26157.63019849  .00090400  00000+0  10033-2 0  9998,2 45237  53.0407 277.8528 0002340 291.1662  68.9101 15.62203560349503
STARLINK-1279,45360,53.0365,0.0006758,15.74703844,340.9302434324127,350.0178761408206,1 45360U 20019A   26158.00004630  .00081946  00000+0  54541-3 0  9994,2 45360  53.0365  19.2786 0006758 109.6177 169.9315 15.74703844  5891
STARLINK-1301,45361,53.0349,9.69e-05,15.80063916,329.60967544617415,330.90976273033266,1 45361U 20019B   26158.00004630  .00052859  00000+0  27983-3 0  9996,2 45361  53.0349  21.8797 0000969  95.9250 325.4621 15.80063916  6001
STARLINK-1262,45366,53.1557,0.0004047,15.33855478,461.55300989543593,467.0912963339679,1 45366U 20019G   26157.59521333  .00044545  00000+0  13444-2 0  9997,2 45366  53.1557 111.7375 0004047  69.6584 290.4853 15.33855478343370
STARLINK-1273,45367,53.0445,0.0005251,15.57024053,392.718087839462,399.83257567026976,1 45367U 20019H   26157.53584435  .00054148  00000+0  73742-3 0  9992,2 45367  53.0445  87.9621 0005251  58.2246 301.9276 15.57024053343685
STARLINK-1277,45369,53.0424,0.0004828,15.64194952,372.29437617457825,378.81574122645907,1 45369U 20019K   26157.49459820  .00113760  00000+0  11628-2 0  9998,2 45369  53.0424  82.2557 0004828  55.7880 304.3591 15.64194952343765
STARLINK-1281,45370,53.1579,0.0004843,15.34850363,458.05262296531873,464.67736459649586,1 45370U 20019L   26157.60765244  .00051699  00000+0  15086-2 0  9997,2 45370  53.1579 111.3174 0004843  64.1186 296.0316 15.34850363343380
STARLINK-1300,45374,53.159,0.0004738,15.35245066,456.95267756558496,463.432678768615,1 45374U 20019Q   26157.16450750  .00072024  00000+0  20657-2 0  9990,2 45374  53.1590 113.3017 0004738  84.2677 275.8866 15.35245066343313
STARLINK-1302,45375,53.0453,0.0005304,15.67204208,363.32934917482453,370.4844917656592,1 45375U 20019R   26157.49283481  .00063975  00000+0  58550-3 0  9991,2 45375  53.0453  78.3726 0005304  67.7743 292.3834 15.67204208343810
STARLINK-1304,45376,53.042,0.0005382,15.62635186,376.4112502480539,383.68576112637584,1 45376U 20019S   26157.48996740  .00060271  00000+0  66187-3 0  9991,2 45376  53.0420  79.6503 0005382  75.3523 284.8087 15.62635186343790
STARLINK-1305,45377,53.0378,0.0002057,15.71342352,353.67460952362035,356.4446466164072,1 45377U 20019T   26157.45146529  .00081415  00000+0  62611-3 0  9992,2 45377  53.0378  58.4699 0002057 200.5662 159.5273 15.71342352344095
STARLINK-1319,45379,53.0373,0.0003162,15.77236525,336.1506821045832,340.398140681149,1 45379U 20019V   26157.93182244  .00089736  00000+0  53419-3 0  9991,2 45379  53.0373  47.8322 0003162  91.5349 268.6032 15.77236525344281
STARLINK-1266,45383,53.0454,0.0001407,15.65689602,370.3065624920846,372.20584173915904,1 45383U 20019Z   26157.44604585  .00057352  00000+0  55915-3 0  9991,2 45383  53.0454  64.8591 0001407 143.3519 216.7592 15.65689602343995
STARLINK-1267,45384,53.043,0.0006547,15.65264102,368.0596842312207,376.89894123111026,1 45384U 20019AA  26157.98801517  .00053112  00000+0  52687-3 0  9998,2 45384  53.0430  53.4179 0006547 109.1717 251.0007 15.65264102344208
STARLINK-1272,45386,53.0394,0.0007212,15.69584502,355.2262952295687,364.94550794281713,1 45386U 20019AC  26157.37464095  .00073216  00000+0  60620-3 0  9992,2 45386  53.0394  35.2523 0007212  90.5380 269.6463 15.69584502344405
STARLINK-1274,45387,53.0194,0.0006989,15.61495921,378.6096875563471,388.0608735100759,1 45387U 20019AD  26156.88227896  .00134428  00000+0  15208-2 0  9998,2 45387  53.0194  36.7902 0006989 128.0536 232.1108 15.61495921344332
STARLINK-1280,45388,53.0359,0.0001326,15.81858118,324.2972912025316,326.0750125024024,1 45388U 20019AE  26158.00004630  .00134041  00000+0  64216-3 0  9999,2 45388  53.0359  39.8046 0001326  84.6374 270.9550 15.81858118  5840
STARLINK-1283,45389,53.0393,0.0003116,15.71487589,352.54683185859176,356.7427014555733,1 45389U 20019AF  26158.00004630 -.00004815  00000+0 -32247-4 0  9997,2 45389  53.0393  31.2559 0003116 131.4746  61.7504 15.71487589  5931
STARLINK-1284,45390,53.0409,0.0004181,15.69846547,356.51909602104297,362.1529709716524,1 45390U 20019AG  26157.98285762  .00065391  00000+0  53706-3 0  9998,2 45390  53.0409  55.2175 0004181  44.9755 315.1600 15.69846547344177
STARLINK-1297,45395,53.0413,0.0006024,15.68184315,360.03469488802057,368.15773746687137,1 45395U 20019AM  26157.93289118  .00060324  00000+0  53095-3 0  9999,2 45395  53.0413  54.4865 0006024  56.1000 304.0588 15.68184315343369
STARLINK-1307,45397,53.0525,0.0002086,15.56586537,396.1312725330099,398.95808692979244,1 45397U 20019AP  26157.46618554  .00048207  00000+0  66879-3 0  9999,2 45397  53.0525  62.5714 0002086 102.2423 257.8822 15.56586537343853
STARLINK-1255,45399,53.0342,0.0004888,15.6560692,368.19461071701244,374.79304981668156,1 45399U 20019AR  26156.87547880  .00069222  00000+0  67470-3 0  9996,2 45399  53.0342  33.4361 0004888 112.0272 248.1262 15.65606920344198
STARLINK-1260,45404,53.1553,0.0005248,15.37621254,449.56065590914295,456.7307702447888,1 45404U 20019AW  26157.06803837  .00074794  00000+0  19862-2 0  9993,2 45404  53.1553  76.5897 0005248  83.9595 276.2006 15.37621254343538
STARLINK-1263,45405,53.1575,0.0004216,15.34962091,458.14970302417805,463.9164912500837,1 45405U 20019AX  26157.49076907  .00067393  00000+0  19524-2 0  9993,2 45405  53.1575  75.8294 0004216 101.9327 258.2149 15.34962091343581
STARLINK-1265,45406,53.1563,0.0004738,15.38048124,448.6456219142283,455.11774761991273,1 45406U 20019AY  26157.06079426  .00073255  00000+0  19193-2 0  9992,2 45406  53.1563  76.6154 0004738  76.0698 284.0833 15.38048124343533
STARLINK-1278,45408,53.039,0.0006324,15.69040383,357.38138213572256,365.90585666313837,1 45408U 20019BA  26157.45029252  .00072624  00000+0  61521-3 0  9991,2 45408  53.0390  55.8122 0006324  74.4822 285.6892 15.69040383343849
STARLINK-1296,45412,53.1559,0.0005312,15.38303147,447.4990961236226,454.75450598586303,1 45412U 20019BE  26157.49052799  .00067157  00000+0  17471-2 0  9991,2 45412  53.1559  74.2893 0005312  70.9995 289.1585 15.38303147343608
STARLINK-1309,45414,53.0611,0.0005876,15.68146602,360.2425138073013,368.16611331900094,1 45414U 20019BG  26157.97949331  .00057663  00000+0  50873-3 0  9998,2 45414  53.0611  47.1283 0005876  52.0266 308.1281 15.68146602343998
